ISS (ZARYA)             
1 25544U 98067A   26028.88605451  .00011021  00000+0  21300-3 0  9998
2 25544  51.6319 269.1180 0011179  40.2849 319.8966 15.48254051550164
CSS (TIANHE)            
1 48274U 21035A   26028.57199371  .00027953  00000+0  32262-3 0  9999
2 48274  41.4673  91.9689 0009404  23.4558 336.6709 15.61237451271344
ISS (NAUKA)             
1 49044U 21066A   26028.88605451  .00011021  00000+0  21300-3 0  9994
2 49044  51.6319 269.1180 0011179  40.2849 319.8966 15.48254051230441
FREGAT DEB              
1 49271U 11037PF  26028.25750630  .00048926  00000+0  87771-1 0  9990
2 49271  51.6476  61.6101 0913837 326.8823  27.7861 12.37101419207685
CSS (WENTIAN)           
1 53239U 22085A   26028.57199371  .00027953  00000+0  32262-3 0  9992
2 53239  41.4673  91.9689 0009404  23.4558 336.6709 15.61237451173847
CSS (MENGTIAN)          
1 54216U 22143A   26028.57199371  .00027953  00000+0  32262-3 0  9993
2 54216  41.4673  91.9689 0009404  23.4558 336.6709 15.61237451158644
PROGRESS-MS 31          
1 64751U 25146A   26028.88605451  .00011021  00000+0  21300-3 0  9999
2 64751  51.6319 269.1180 0011179  40.2849 319.8966 15.48254051  6758
TIANZHOU-9              
1 64786U 25149A   26028.57199371  .00027953  00000+0  32262-3 0  9995
2 64786  41.4673  91.9689 0009404  23.4558 336.6709 15.61237451255308
DRAGON CRS-33           
1 65304U 25186A   26028.88605451  .00011021  00000+0  21300-3 0  9998
2 65304  51.6319 269.1180 0011179  40.2849 319.8966 15.48254051   117
PROGRESS-MS 32          
1 65586U 25204A   26028.88605451  .00011021  00000+0  21300-3 0  9991
2 65586  51.6319 269.1180 0011179  40.2849 319.8966 15.48254051   276
CYGNUS NG-23            
1 65616U 25208A   26028.88605451  .00011021  00000+0  21300-3 0  9999
2 65616  51.6319 269.1180 0011179  40.2849 319.8966 15.48254051   225
DRAGONFLY               
1 65729U 98067XH  26028.83530788  .02150850  51119-2  17459-2 0  9997
2 65729  51.6063 249.8464 0007538 230.2713 129.7639 16.14710791 20635
